[
    {
        "Altitude(m)": 570344.5953941823,
        "Argument of Periapsis(deg)": 0.033114955553567506,
        "Eccentricity": 0.0,
        "Inclination(deg)": 53.0,
        "Latitude(deg)": -49.33652462966212,
        "Longitude(deg)": 150.2701327474776,
        "Mean Anomaly(deg)": -71.36013566211203,
        "RAAN(deg)": 314.9507168426401,
        "Satellite Name": "Starlink Shell 1 1400",
        "Satellite Number": 1400,
        "Semi-Major Axis(m)": 6931778.249405717,
        "Time(s)": 950
    },
    {
        "Altitude(m)": 570245.438763068,
        "Argument of Periapsis(deg)": 0.03346353403307874,
        "Eccentricity": 0.0,
        "Inclination(deg)": 53.0,
        "Latitude(deg)": -49.089095114764945,
        "Longitude(deg)": 151.1049953402225,
        "Mean Anomaly(deg)": -70.7333044585553,
        "RAAN(deg)": 314.9501980725626,
        "Satellite Name": "Starlink Shell 1 1400",
        "Satellite Number": 1400,
        "Semi-Major Axis(m)": 6931778.249405717,
        "Time(s)": 960
    },
    {
        "Altitude(m)": 570143.4371106303,
        "Argument of Periapsis(deg)": 0.03381211251258998,
        "Eccentricity": 0.0,
        "Inclination(deg)": 53.0,
        "Latitude(deg)": -48.83507015894774,
        "Longitude(deg)": 151.93109711696619,
        "Mean Anomaly(deg)": -70.10647325499865,
        "RAAN(deg)": 314.94967930248515,
        "Satellite Name": "Starlink Shell 1 1400",
        "Satellite Number": 1400,
        "Semi-Major Axis(m)": 6931778.249405717,
        "Time(s)": 970
    },
    {
        "Altitude(m)": 570038.6308995956,
        "Argument of Periapsis(deg)": 0.034160690992101214,
        "Eccentricity": 0.0,
        "Inclination(deg)": 53.0,
        "Latitude(deg)": -48.57457283807594,
        "Longitude(deg)": 152.74838000700802,
        "Mean Anomaly(deg)": -69.47964205144194,
        "RAAN(deg)": 314.94916053240763,
        "Satellite Name": "Starlink Shell 1 1400",
        "Satellite Number": 1400,
        "Semi-Major Axis(m)": 6931778.249405717,
        "Time(s)": 980
    },
    {
        "Altitude(m)": 569931.061688714,
        "Argument of Periapsis(deg)": 0.034509269471612446,
        "Eccentricity": 0.0,
        "Inclination(deg)": 53.0,
        "Latitude(deg)": -48.3077262876024,
        "Longitude(deg)": 153.55679931860632,
        "Mean Anomaly(deg)": -68.8528108478852,
        "RAAN(deg)": 314.9486417623302,
        "Satellite Name": "Starlink Shell 1 1400",
        "Satellite Number": 1400,
        "Semi-Major Axis(m)": 6931778.249405717,
        "Time(s)": 990
    }
]